{
    "links": {
        "self": "http://www.neowsapp.com/rest/v1/neo/3267313?api_key=iIulBulltgU6a56xZRHN4H3l9WmuAYTsLGpBGhQ2"
    },
    "id": "3267313",
    "neo_reference_id": "3267313",
    "name": "(2005 CC37)",
    "designation": "2005 CC37",
    "nasa_jpl_url": "http://ssd.jpl.nasa.gov/sbdb.cgi?sstr=3267313",
    "absolute_magnitude_h": 22.7,
    "estimated_diameter": {
        "kilometers": {
            "estimated_diameter_min": 0.0766575574,
            "estimated_diameter_max": 0.1714115092
        },
        "meters": {
            "estimated_diameter_min": 76.6575573531,
            "estimated_diameter_max": 171.4115092306
        },
        "miles": {
            "estimated_diameter_min": 0.0476327831,
            "estimated_diameter_max": 0.1065101409
        },
        "feet": {
            "estimated_diameter_min": 251.5011804664,
            "estimated_diameter_max": 562.3737359442
        }
    },
    "is_potentially_hazardous_asteroid": false,
    "close_approach_data": [
        {
            "close_approach_date": "1901-10-06",
            "close_approach_date_full": "1901-Oct-06 09:22",
            "epoch_date_close_approach": -2153399880000,
            "relative_velocity": {
                "kilometers_per_second": "2.6118527125",
                "kilometers_per_hour": "9402.6697649331",
                "miles_per_hour": "5842.4533325497"
            },
            "miss_distance": {
                "astronomical": "1.7753407322",
                "lunar": "690.6075448258",
                "kilometers": "265587192.061360414",
                "miles": "165028228.6862811532"
            },
            "orbiting_body": "Juptr"
        },
        {
            "close_approach_date": "1997-01-07",
            "close_approach_date_full": "1997-Jan-07 20:34",
            "epoch_date_close_approach": 852669240000,
            "relative_velocity": {
                "kilometers_per_second": "2.6323676593",
                "kilometers_per_hour": "9476.5235734752",
                "miles_per_hour": "5888.3432170852"
            },
            "miss_distance": {
                "astronomical": "1.925134175",
                "lunar": "748.877194075",
                "kilometers": "287995972.04420725",
                "miles": "178952398.89527005"
            },
            "orbiting_body": "Juptr"
        },
        {
            "close_approach_date": "2005-01-26",
            "close_approach_date_full": "2005-Jan-26 22:01",
            "epoch_date_close_approach": 1106776860000,
            "relative_velocity": {
                "kilometers_per_second": "9.9469883374",
                "kilometers_per_hour": "35809.158014728",
                "miles_per_hour": "22250.4182119847"
            },
            "miss_distance": {
                "astronomical": "0.0547093393",
                "lunar": "21.2819329877",
                "kilometers": "8184400.628387291",
                "miles": "5085550.7303589758"
            },
            "orbiting_body": "Earth"
        }
    ],
    "orbital_data": {
        "orbit_id": "21",
        "orbit_determination_date": "2020-05-20 07:59:24",
        "first_observation_date": "2005-01-13",
        "last_observation_date": "2005-03-08",
        "data_arc_in_days": 54,
        "observations_used": 96,
        "orbit_uncertainty": "6",
        "minimum_orbit_intersection": ".00261303",
        "jupiter_tisserand_invariant": "3.424",
        "epoch_osculation": "2459000.5",
        "eccentricity": ".5619752704936877",
        "semi_major_axis": "2.213317579684734",
        "inclination": "6.138530228078958",
        "ascending_node_longitude": "112.9980530191448",
        "orbital_period": "1202.718599295476",
        "perihelion_distance": ".9694878341529716",
        "perihelion_argument": "345.9151269826876",
        "aphelion_distance": "3.457147325216497",
        "perihelion_time": "2459392.532609832811",
        "mean_anomaly": "242.656059678063",
        "mean_motion": ".2993218864419986",
        "equinox": "J2000",
        "orbit_class": {
            "orbit_class_type": "APO",
            "orbit_class_description": "Near-Earth asteroid orbits which cross the Earth’s orbit similar to that of 1862 Apollo",
            "orbit_class_range": "a (semi-major axis) > 1.0 AU; q (perihelion) < 1.017 AU"
        }
    },
    "is_sentry_object": false
}